LEGION 1                
1 59625U 24081A   24131.93869087  .00017566  00000+0  91680-3 0  9994
2 59625  97.5772 203.0588 0004895 130.7870 229.3788 15.15984600  1238
